CCSDS_OMM_VERS = 2.0
CREATION_DATE  = 
ORIGINATOR     = 

OBJECT_NAME    = FSI-SAT2
OBJECT_ID      = 2026-088A
CENTER_NAME    = EARTH
REF_FRAME      = TEME
TIME_SYSTEM    = UTC
MEAN_ELEMENT_THEORY = SGP/SGP4

EPOCH          = 2026-05-23T09:09:28.416096
MEAN_MOTION    = 15.06591954
ECCENTRICITY   = .0014496
INCLINATION    = 97.5034
RA_OF_ASC_NODE = 293.2727
ARG_OF_PERICENTER = 186.9773
MEAN_ANOMALY   = 173.1255

EPHEMERIS_TYPE = 0
CLASSIFICATION_TYPE = U
NORAD_CAT_ID   = 68792
ELEMENT_SET_NO = 999
REV_AT_EPOCH   = 455
BSTAR          = .21656E-3
MEAN_MOTION_DOT = .3153E-4
MEAN_MOTION_DDOT = 0

CCSDS_OMM_VERS = 2.0
CREATION_DATE  = 
ORIGINATOR     = 

OBJECT_NAME    = KAKUSHIN RISING OBJECT B
OBJECT_ID      = 2026-088B
CENTER_NAME    = EARTH
REF_FRAME      = TEME
TIME_SYSTEM    = UTC
MEAN_ELEMENT_THEORY = SGP/SGP4

EPOCH          = 2026-05-23T09:01:48.266976
MEAN_MOTION    = 15.06842446
ECCENTRICITY   = .0015671
INCLINATION    = 97.5030
RA_OF_ASC_NODE = 293.2772
ARG_OF_PERICENTER = 183.3222
MEAN_ANOMALY   = 176.7904

EPHEMERIS_TYPE = 0
CLASSIFICATION_TYPE = U
NORAD_CAT_ID   = 68793
ELEMENT_SET_NO = 999
REV_AT_EPOCH   = 455
BSTAR          = .21156E-3
MEAN_MOTION_DOT = .3101E-4
MEAN_MOTION_DDOT = 0

CCSDS_OMM_VERS = 2.0
CREATION_DATE  = 
ORIGINATOR     = 

OBJECT_NAME    = KAKUSHIN RISING OBJECT C
OBJECT_ID      = 2026-088C
CENTER_NAME    = EARTH
REF_FRAME      = TEME
TIME_SYSTEM    = UTC
MEAN_ELEMENT_THEORY = SGP/SGP4

EPOCH          = 2026-05-23T08:56:04.787232
MEAN_MOTION    = 15.07048293
ECCENTRICITY   = .0013247
INCLINATION    = 97.5038
RA_OF_ASC_NODE = 293.2854
ARG_OF_PERICENTER = 175.8376
MEAN_ANOMALY   = 184.2964

EPHEMERIS_TYPE = 0
CLASSIFICATION_TYPE = U
NORAD_CAT_ID   = 68794
ELEMENT_SET_NO = 999
REV_AT_EPOCH   = 455
BSTAR          = .24157E-3
MEAN_MOTION_DOT = .3567E-4
MEAN_MOTION_DDOT = 0

CCSDS_OMM_VERS = 2.0
CREATION_DATE  = 
ORIGINATOR     = 

OBJECT_NAME    = ORIGAMISAT-2
OBJECT_ID      = 2026-088D
CENTER_NAME    = EARTH
REF_FRAME      = TEME
TIME_SYSTEM    = UTC
MEAN_ELEMENT_THEORY = SGP/SGP4

EPOCH          = 2026-05-23T10:02:45.464928
MEAN_MOTION    = 15.08045996
ECCENTRICITY   = .0016399
INCLINATION    = 97.5054
RA_OF_ASC_NODE = 293.3796
ARG_OF_PERICENTER = 160.4643
MEAN_ANOMALY   = 199.7217

EPHEMERIS_TYPE = 0
CLASSIFICATION_TYPE = U
NORAD_CAT_ID   = 68795
ELEMENT_SET_NO = 999
REV_AT_EPOCH   = 456
BSTAR          = .20573E-3
MEAN_MOTION_DOT = .3116E-4
MEAN_MOTION_DDOT = 0

CCSDS_OMM_VERS = 2.0
CREATION_DATE  = 
ORIGINATOR     = 

OBJECT_NAME    = ARICA-2
OBJECT_ID      = 2026-088E
CENTER_NAME    = EARTH
REF_FRAME      = TEME
TIME_SYSTEM    = UTC
MEAN_ELEMENT_THEORY = SGP/SGP4

EPOCH          = 2026-05-23T09:59:21.109056
MEAN_MOTION    = 15.08186819
ECCENTRICITY   = .0016453
INCLINATION    = 97.5039
RA_OF_ASC_NODE = 293.3752
ARG_OF_PERICENTER = 158.6392
MEAN_ANOMALY   = 201.5526

EPHEMERIS_TYPE = 0
CLASSIFICATION_TYPE = U
NORAD_CAT_ID   = 68796
ELEMENT_SET_NO = 999
REV_AT_EPOCH   = 456
BSTAR          = .24651E-3
MEAN_MOTION_DOT = .3761E-4
MEAN_MOTION_DDOT = 0

CCSDS_OMM_VERS = 2.0
CREATION_DATE  = 
ORIGINATOR     = 

OBJECT_NAME    = WASEDA-SAT-ZERO-II
OBJECT_ID      = 2026-088F
CENTER_NAME    = EARTH
REF_FRAME      = TEME
TIME_SYSTEM    = UTC
MEAN_ELEMENT_THEORY = SGP/SGP4

EPOCH          = 2026-05-23T09:57:11.096064
MEAN_MOTION    = 15.08304363
ECCENTRICITY   = .0016389
INCLINATION    = 97.5037
RA_OF_ASC_NODE = 293.3769
ARG_OF_PERICENTER = 158.5767
MEAN_ANOMALY   = 201.6151

EPHEMERIS_TYPE = 0
CLASSIFICATION_TYPE = U
NORAD_CAT_ID   = 68797
ELEMENT_SET_NO = 999
REV_AT_EPOCH   = 456
BSTAR          = .33355E-3
MEAN_MOTION_DOT = .5128E-4
MEAN_MOTION_DDOT = 0

CCSDS_OMM_VERS = 2.0
CREATION_DATE  = 
ORIGINATOR     = 

OBJECT_NAME    = MAGNARO-II
OBJECT_ID      = 2026-088G
CENTER_NAME    = EARTH
REF_FRAME      = TEME
TIME_SYSTEM    = UTC
MEAN_ELEMENT_THEORY = SGP/SGP4

EPOCH          = 2026-05-23T09:48:06.555744
MEAN_MOTION    = 15.08566498
ECCENTRICITY   = .0019781
INCLINATION    = 97.5044
RA_OF_ASC_NODE = 293.3891
ARG_OF_PERICENTER = 161.9804
MEAN_ANOMALY   = 198.2130

EPHEMERIS_TYPE = 0
CLASSIFICATION_TYPE = U
NORAD_CAT_ID   = 68798
ELEMENT_SET_NO = 999
REV_AT_EPOCH   = 456
BSTAR          = .19708E-3
MEAN_MOTION_DOT = .3029E-4
MEAN_MOTION_DDOT = 0

CCSDS_OMM_VERS = 2.0
CREATION_DATE  = 
ORIGINATOR     = 

OBJECT_NAME    = KAKUSHIN RISING OBJECT H
OBJECT_ID      = 2026-088H
CENTER_NAME    = EARTH
REF_FRAME      = TEME
TIME_SYSTEM    = UTC
MEAN_ELEMENT_THEORY = SGP/SGP4

EPOCH          = 2026-05-23T09:47:35.079360
MEAN_MOTION    = 15.08586023
ECCENTRICITY   = .0019834
INCLINATION    = 97.5030
RA_OF_ASC_NODE = 293.3821
ARG_OF_PERICENTER = 161.9177
MEAN_ANOMALY   = 198.2761

EPHEMERIS_TYPE = 0
CLASSIFICATION_TYPE = U
NORAD_CAT_ID   = 68799
ELEMENT_SET_NO = 999
REV_AT_EPOCH   = 456
BSTAR          = .20387E-3
MEAN_MOTION_DOT = .3138E-4
MEAN_MOTION_DDOT = 0

CCSDS_OMM_VERS = 2.0
CREATION_DATE  = 
ORIGINATOR     = 

OBJECT_NAME    = STARLINK-37471
OBJECT_ID      = 2026-089A
CENTER_NAME    = EARTH
REF_FRAME      = TEME
TIME_SYSTEM    = UTC
MEAN_ELEMENT_THEORY = SGP/SGP4

EPOCH          = 2026-05-23T12:49:23.794752
MEAN_MOTION    = 15.75216401
ECCENTRICITY   = .0000934
INCLINATION    = 97.2846
RA_OF_ASC_NODE = 350.0833
ARG_OF_PERICENTER = 73.4617
MEAN_ANOMALY   = 286.6751

EPHEMERIS_TYPE = 0
CLASSIFICATION_TYPE = U
NORAD_CAT_ID   = 68802
ELEMENT_SET_NO = 999
REV_AT_EPOCH   = 481
BSTAR          = .99446E-3
MEAN_MOTION_DOT = .151023E-2
MEAN_MOTION_DDOT = 0

CCSDS_OMM_VERS = 2.0
CREATION_DATE  = 
ORIGINATOR     = 

OBJECT_NAME    = STARLINK-37460
OBJECT_ID      = 2026-089B
CENTER_NAME    = EARTH
REF_FRAME      = TEME
TIME_SYSTEM    = UTC
MEAN_ELEMENT_THEORY = SGP/SGP4

EPOCH          = 2026-05-23T12:48:22.879296
MEAN_MOTION    = 15.75286273
ECCENTRICITY   = .0001386
INCLINATION    = 97.2846
RA_OF_ASC_NODE = 350.0845
ARG_OF_PERICENTER = 116.0240
MEAN_ANOMALY   = 244.1168

EPHEMERIS_TYPE = 0
CLASSIFICATION_TYPE = U
NORAD_CAT_ID   = 68803
ELEMENT_SET_NO = 999
REV_AT_EPOCH   = 481
BSTAR          = .17745E-2
MEAN_MOTION_DOT = .27437E-2
MEAN_MOTION_DDOT = 0

CCSDS_OMM_VERS = 2.0
CREATION_DATE  = 
ORIGINATOR     = 

OBJECT_NAME    = STARLINK-37473
OBJECT_ID      = 2026-089C
CENTER_NAME    = EARTH
REF_FRAME      = TEME
TIME_SYSTEM    = UTC
MEAN_ELEMENT_THEORY = SGP/SGP4

EPOCH          = 2026-05-23T12:46:20.866080
MEAN_MOTION    = 15.75199581
ECCENTRICITY   = .000102
INCLINATION    = 97.2841
RA_OF_ASC_NODE = 350.0863
ARG_OF_PERICENTER = 17.8786
MEAN_ANOMALY   = 342.2515

EPHEMERIS_TYPE = 0
CLASSIFICATION_TYPE = U
NORAD_CAT_ID   = 68804
ELEMENT_SET_NO = 999
REV_AT_EPOCH   = 481
BSTAR          = .86731E-3
MEAN_MOTION_DOT = .131295E-2
MEAN_MOTION_DDOT = 0

CCSDS_OMM_VERS = 2.0
CREATION_DATE  = 
ORIGINATOR     = 

OBJECT_NAME    = STARLINK-36832
OBJECT_ID      = 2026-089D
CENTER_NAME    = EARTH
REF_FRAME      = TEME
TIME_SYSTEM    = UTC
MEAN_ELEMENT_THEORY = SGP/SGP4

EPOCH          = 2026-05-23T11:12:19.729728
MEAN_MOTION    = 15.76231857
ECCENTRICITY   = .0003474
INCLINATION    = 97.2808
RA_OF_ASC_NODE = 350.0252
ARG_OF_PERICENTER = 150.2517
MEAN_ANOMALY   = 209.8947

EPHEMERIS_TYPE = 0
CLASSIFICATION_TYPE = U
NORAD_CAT_ID   = 68805
ELEMENT_SET_NO = 999
REV_AT_EPOCH   = 480
BSTAR          = .18439E-2
MEAN_MOTION_DOT = .297913E-2
MEAN_MOTION_DDOT = 0

