FSI-SAT2                
1 68792U 26088A   26143.38157889  .00003153  00000+0  21656-3 0  9995
2 68792  97.5034 293.2727 0014496 186.9773 173.1255 15.06591954  4552
KAKUSHIN RISING OBJECT B
1 68793U 26088B   26143.37625309  .00003101  00000+0  21156-3 0  9990
2 68793  97.5030 293.2772 0015671 183.3222 176.7904 15.06842446  4550
KAKUSHIN RISING OBJECT C
1 68794U 26088C   26143.37227763  .00003567  00000+0  24157-3 0  9993
2 68794  97.5038 293.2854 0013247 175.8376 184.2964 15.07048293  4552
ORIGAMISAT-2            
1 68795U 26088D   26143.41858177  .00003116  00000+0  20573-3 0  9996
2 68795  97.5054 293.3796 0016399 160.4643 199.7217 15.08045996  4566
ARICA-2                 
1 68796U 26088E   26143.41621654  .00003761  00000+0  24651-3 0  9992
2 68796  97.5039 293.3752 0016453 158.6392 201.5526 15.08186819  4568
WASEDA-SAT-ZERO-II      
1 68797U 26088F   26143.41471176  .00005128  00000+0  33355-3 0  9995
2 68797  97.5037 293.3769 0016389 158.5767 201.6151 15.08304363  4569
MAGNARO-II              
1 68798U 26088G   26143.40840921  .00003029  00000+0  19708-3 0  9997
2 68798  97.5044 293.3891 0019781 161.9804 198.2130 15.08566498  4560
KAKUSHIN RISING OBJECT H
1 68799U 26088H   26143.40804490  .00003138  00000+0  20387-3 0  9995
2 68799  97.5030 293.3821 0019834 161.9177 198.2761 15.08586023  4567
STARLINK-37471          
1 68802U 26089A   26143.53430318  .00151023  00000+0  99446-3 0  9998
2 68802  97.2846 350.0833 0000934  73.4617 286.6751 15.75216401  4818
STARLINK-37460          
1 68803U 26089B   26143.53359814  .00274370  00000+0  17745-2 0  9992
2 68803  97.2846 350.0845 0001386 116.0240 244.1168 15.75286273  4815
STARLINK-37473          
1 68804U 26089C   26143.53218595  .00131295  00000+0  86731-3 0  9993
2 68804  97.2841 350.0863 0001020  17.8786 342.2515 15.75199581  4810
STARLINK-36832          
1 68805U 26089D   26143.46689502  .00297913  00000+0  18439-2 0  9995
2 68805  97.2808 350.0252 0003474 150.2517 209.8947 15.76231857  4805
